{"type": "FeatureCollection", "features": [{"type": "Feature", "properties": {"norad_id": 66456, "name": "STARLINK-35643", "group": "last-30-days", "lat": -1.353690430255472, "lon": -124.52647111567589, "alt_km": 443.31353990042135, "timestamp": "2025-12-15T19:00:44.075345+00:00", "meta": {"OBJECT_NAME": "STARLINK-35643", "OBJECT_ID": "2025-262A", "EPOCH": "2025-12-14T06:26:32.770176", "MEAN_MOTION": 15.40673299, "ECCENTRICITY": 0.00013667, "INCLINATION": 42.9981, "RA_OF_ASC_NODE": 62.8042, "ARG_OF_PERICENTER": 246.4553, "MEAN_ANOMALY": 113.616, "EPHEMERIS_TYPE": 0, "CLASSIFICATION_TYPE": "U", "NORAD_CAT_ID": 66456, "ELEMENT_SET_NO": 999, "REV_AT_EPOCH": 579, "BSTAR": 0.0013731422, "MEAN_MOTION_DOT": 0.00057438, "MEAN_MOTION_DDOT": 0}, "tle": {"line1": "1 66456U 25262A   25348.26843484  .00057438  00000+0  13731-2 0  9998", "line2": "2 66456  42.9981  62.8042 0001366 246.4553 113.6160 15.40673299  5794"}}, "geometry": {"type": "Point", "coordinates": [-124.52647111567589, -1.353690430255472]}}, {"type": "Feature", "properties": {"norad_id": 66457, "name": "STARLINK-35466", "group": "last-30-days", "lat": -18.009037089121176, "lon": -105.61867860560993, "alt_km": 445.8357133486661, "timestamp": "2025-12-15T19:00:44.075401+00:00", "meta": {"OBJECT_NAME": "STARLINK-35466", "OBJECT_ID": "2025-262B", "EPOCH": "2025-12-13T22:33:20.355552", "MEAN_MOTION": 15.40671751, "ECCENTRICITY": 0.00024231, "INCLINATION": 42.9963, "RA_OF_ASC_NODE": 64.639, "ARG_OF_PERICENTER": 88.46, "MEAN_ANOMALY": 271.6534, "EPHEMERIS_TYPE": 0, "CLASSIFICATION_TYPE": "U", "NORAD_CAT_ID": 66457, "ELEMENT_SET_NO": 999, "REV_AT_EPOCH": 574, "BSTAR": 0.0011376506, "MEAN_MOTION_DOT": 0.00047472, "MEAN_MOTION_DDOT": 0}, "tle": {"line1": "1 66457U 25262B   25347.93981893  .00047472  00000+0  11377-2 0  9990", "line2": "2 66457  42.9963  64.6390 0002423  88.4600 271.6534 15.40671751  5749"}}, "geometry": {"type": "Point", "coordinates": [-105.61867860560993, -18.009037089121176]}}, {"type": "Feature", "properties": {"norad_id": 66458, "name": "STARLINK-35684", "group": "last-30-days", "lat": -9.996930993532215, "lon": -115.10466566523709, "alt_km": 444.75102079926364, "timestamp": "2025-12-15T19:00:44.075418+00:00", "meta": {"OBJECT_NAME": "STARLINK-35684", "OBJECT_ID": "2025-262C", "EPOCH": "2025-12-14T06:23:19.275648", "MEAN_MOTION": 15.4072028, "ECCENTRICITY": 0.00013262, "INCLINATION": 43, "RA_OF_ASC_NODE": 62.7886, "ARG_OF_PERICENTER": 73.0033, "MEAN_ANOMALY": 287.0969, "EPHEMERIS_TYPE": 0, "CLASSIFICATION_TYPE": "U", "NORAD_CAT_ID": 66458, "ELEMENT_SET_NO": 999, "REV_AT_EPOCH": 579, "BSTAR": 0.0014126423, "MEAN_MOTION_DOT": 0.00059205, "MEAN_MOTION_DDOT": 0}, "tle": {"line1": "1 66458U 25262C   25348.26619532  .00059205  00000+0  14126-2 0  9998", "line2": "2 66458  43.0000  62.7886 0001326  73.0033 287.0969 15.40720280  5794"}}, "geometry": {"type": "Point", "coordinates": [-115.10466566523709, -9.996930993532215]}}, {"type": "Feature", "properties": {"norad_id": 66459, "name": "STARLINK-35449", "group": "last-30-days", "lat": -25.47074870060747, "lon": -95.32554172356544, "alt_km": 445.4487859169558, "timestamp": "2025-12-15T19:00:44.075431+00:00", "meta": {"OBJECT_NAME": "STARLINK-35449", "OBJECT_ID": "2025-262D", "EPOCH": "2025-12-14T21:50:24.734400", "MEAN_MOTION": 15.40723362, "ECCENTRICITY": 0.00014192, "INCLINATION": 43.001, "RA_OF_ASC_NODE": 59.0181, "ARG_OF_PERICENTER": 258.2262, "MEAN_ANOMALY": 101.8435, "EPHEMERIS_TYPE": 0, "CLASSIFICATION_TYPE": "U", "NORAD_CAT_ID": 66459, "ELEMENT_SET_NO": 999, "REV_AT_EPOCH": 589, "BSTAR": 0.0010954274, "MEAN_MOTION_DOT": 0.00045766, "MEAN_MOTION_DDOT": 0}, "tle": {"line1": "1 66459U 25262D   25348.91000850  .00045766  00000+0  10954-2 0  9990", "line2": "2 66459  43.0010  59.0181 0001419 258.2262 101.8435 15.40723362  5893"}}, "geometry": {"type": "Point", "coordinates": [-95.32554172356544, -25.47074870060747]}}, {"type": "Feature", "properties": {"norad_id": 66460, "name": "STARLINK-35424", "group": "last-30-days", "lat": -32.25764441778211, "lon": -83.46642099961018, "alt_km": 446.1122256459139, "timestamp": "2025-12-15T19:00:44.075444+00:00", "meta": {"OBJECT_NAME": "STARLINK-35424", "OBJECT_ID": "2025-262E", "EPOCH": "2025-12-14T21:47:11.047200", "MEAN_MOTION": 15.40718412, "ECCENTRICITY": 0.00013253, "INCLINATION": 43.001, "RA_OF_ASC_NODE": 59.0009, "ARG_OF_PERICENTER": 282.483, "MEAN_ANOMALY": 77.5879, "EPHEMERIS_TYPE": 0, "CLASSIFICATION_TYPE": "U", "NORAD_CAT_ID": 66460, "ELEMENT_SET_NO": 999, "REV_AT_EPOCH": 589, "BSTAR": 0.0010514902, "MEAN_MOTION_DOT": 0.000439, "MEAN_MOTION_DDOT": 0}, "tle": {"line1": "1 66460U 25262E   25348.90776675  .00043900  00000+0  10515-2 0  9997", "line2": "2 66460  43.0010  59.0009 0001325 282.4830  77.5879 15.40718412  5891"}}, "geometry": {"type": "Point", "coordinates": [-83.46642099961018, -32.25764441778211]}}, {"type": "Feature", "properties": {"norad_id": 66461, "name": "STARLINK-35132", "group": "last-30-days", "lat": -37.77799251242694, "lon": -69.85148418006791, "alt_km": 445.8546783032407, "timestamp": "2025-12-15T19:00:44.075455+00:00", "meta": {"OBJECT_NAME": "STARLINK-35132", "OBJECT_ID": "2025-262F", "EPOCH": "2025-12-14T21:43:57.493056", "MEAN_MOTION": 15.4072307, "ECCENTRICITY": 0.00016625, "INCLINATION": 43.0007, "RA_OF_ASC_NODE": 58.9833, "ARG_OF_PERICENTER": 263.0519, "MEAN_ANOMALY": 97.0148, "EPHEMERIS_TYPE": 0, "CLASSIFICATION_TYPE": "U", "NORAD_CAT_ID": 66461, "ELEMENT_SET_NO": 999, "REV_AT_EPOCH": 589, "BSTAR": 0.0011101211, "MEAN_MOTION_DOT": 0.00046387, "MEAN_MOTION_DDOT": 0}, "tle": {"line1": "1 66461U 25262F   25348.90552654  .00046387  00000+0  11101-2 0  9991", "line2": "2 66461  43.0007  58.9833 0001662 263.0519  97.0148 15.40723070  5896"}}, "geometry": {"type": "Point", "coordinates": [-69.85148418006791, -37.77799251242694]}}, {"type": "Feature", "properties": {"norad_id": 66462, "name": "STARLINK-35499", "group": "last-30-days", "lat": -41.50120741291192, "lon": -54.451479651711026, "alt_km": 445.9384381021473, "timestamp": "2025-12-15T19:00:44.075467+00:00", "meta": {"OBJECT_NAME": "STARLINK-35499", "OBJECT_ID": "2025-262G", "EPOCH": "2025-12-14T21:40:43.835232", "MEAN_MOTION": 15.40722649, "ECCENTRICITY": 0.0001671, "INCLINATION": 43, "RA_OF_ASC_NODE": 58.9653, "ARG_OF_PERICENTER": 263.1771, "MEAN_ANOMALY": 96.8895, "EPHEMERIS_TYPE": 0, "CLASSIFICATION_TYPE": "U", "NORAD_CAT_ID": 66462, "ELEMENT_SET_NO": 999, "REV_AT_EPOCH": 589, "BSTAR": 0.0011164534, "MEAN_MOTION_DOT": 0.00046655, "MEAN_MOTION_DDOT": 0}, "tle": {"line1": "1 66462U 25262G   25348.90328513  .00046655  00000+0  11165-2 0  9995", "line2": "2 66462  43.0000  58.9653 0001671 263.1771  96.8895 15.40722649  5898"}}, "geometry": {"type": "Point", "coordinates": [-54.451479651711026, -41.50120741291192]}}, {"type": "Feature", "properties": {"norad_id": 66463, "name": "STARLINK-35463", "group": "last-30-days", "lat": -41.9642268305683, "lon": -21.020368830360532, "alt_km": 446.02043776921346, "timestamp": "2025-12-15T19:00:44.075477+00:00", "meta": {"OBJECT_NAME": "STARLINK-35463", "OBJECT_ID": "2025-262H", "EPOCH": "2025-12-14T21:34:16.982688", "MEAN_MOTION": 15.40721471, "ECCENTRICITY": 0.0001669, "INCLINATION": 43.0005, "RA_OF_ASC_NODE": 58.9304, "ARG_OF_PERICENTER": 252.0767, "MEAN_ANOMALY": 107.9908, "EPHEMERIS_TYPE": 0, "CLASSIFICATION_TYPE": "U", "NORAD_CAT_ID": 66463, "ELEMENT_SET_NO": 999, "REV_AT_EPOCH": 589, "BSTAR": 0.0011376702, "MEAN_MOTION_DOT": 0.00047551, "MEAN_MOTION_DDOT": 0}, "tle": {"line1": "1 66463U 25262H   25348.89880767  .00047551  00000+0  11377-2 0  9999", "line2": "2 66463  43.0005  58.9304 0001669 252.0767 107.9908 15.40721471  5897"}}, "geometry": {"type": "Point", "coordinates": [-21.020368830360532, -41.9642268305683]}}, {"type": "Feature", "properties": {"norad_id": 66464, "name": "STARLINK-35435", "group": "last-30-days", "lat": -42.97024602550396, "lon": -37.87560673414693, "alt_km": 446.48516466570163, "timestamp": "2025-12-15T19:00:44.075493+00:00", "meta": {"OBJECT_NAME": "STARLINK-35435", "OBJECT_ID": "2025-262J", "EPOCH": "2025-12-14T21:37:30.269856", "MEAN_MOTION": 15.40716161, "ECCENTRICITY": 0.00010881, "INCLINATION": 43.0029, "RA_OF_ASC_NODE": 58.9475, "ARG_OF_PERICENTER": 274.2456, "MEAN_ANOMALY": 85.8276, "EPHEMERIS_TYPE": 0, "CLASSIFICATION_TYPE": "U", "NORAD_CAT_ID": 66464, "ELEMENT_SET_NO": 999, "REV_AT_EPOCH": 589, "BSTAR": 0.00072632241, "MEAN_MOTION_DOT": 0.00030173, "MEAN_MOTION_DDOT": 0}, "tle": {"line1": "1 66464U 25262J   25348.90104479  .00030173  00000+0  72632-3 0  9995", "line2": "2 66464  43.0029  58.9475 0001088 274.2456  85.8276 15.40716161  5891"}}, "geometry": {"type": "Point", "coordinates": [-37.87560673414693, -42.97024602550396]}}, {"type": "Feature", "properties": {"norad_id": 66465, "name": "STARLINK-35448", "group": "last-30-days", "lat": -33.47098694169009, "lon": 8.525595004550715, "alt_km": 445.9644237468219, "timestamp": "2025-12-15T19:00:44.075506+00:00", "meta": {"OBJECT_NAME": "STARLINK-35448", "OBJECT_ID": "2025-262K", "EPOCH": "2025-12-14T20:00:06.000192", "MEAN_MOTION": 15.40720278, "ECCENTRICITY": 0.00013693, "INCLINATION": 43.0007, "RA_OF_ASC_NODE": 59.2456, "ARG_OF_PERICENTER": 279.9455, "MEAN_ANOMALY": 101.8237, "EPHEMERIS_TYPE": 0, "CLASSIFICATION_TYPE": "U", "NORAD_CAT_ID": 66465, "ELEMENT_SET_NO": 999, "REV_AT_EPOCH": 597, "BSTAR": 0.00024995807, "MEAN_MOTION_DOT": 0.00010159, "MEAN_MOTION_DDOT": 0}, "tle": {"line1": "1 66465U 25262K   25348.83340278  .00010159  00000+0  24996-3 0  9999", "line2": "2 66465  43.0007  59.2456 0001369 279.9455 101.8237 15.40720278  5973"}}, "geometry": {"type": "Point", "coordinates": [8.525595004550715, -33.47098694169009]}}]}